$$SOE
2460161.500000000, A.D. 2023-Aug-05 00:00:00.0000, -2.061921159284327E+08, 5.943053980538986E+08, 1.928386334534776E+07,
2460168.500000000, A.D. 2023-Aug-12 00:00:00.0000, -2.139267365691071E+08, 5.908590664368801E+08, 1.935858658105764E+07,
2460175.500000000, A.D. 2023-Aug-19 00:00:00.0000, -2.216195899763251E+08, 5.872972637558482E+08, 1.942952799289465E+07,
2460182.500000000, A.D. 2023-Aug-26 00:00:00.0000, -2.292690360758124E+08, 5.836203157867348E+08, 1.949666165000468E+07,
2460189.500000000, A.D. 2023-Sep-02 00:00:00.0000, -2.368734308008389E+08, 5.798285683750002E+08, 1.955996203678647E+07,
2460196.500000000, A.D. 2023-Sep-09 00:00:00.0000, -2.444311262394898E+08, 5.759223876017629E+08, 1.961940405238318E+07,
2460203.500000000, A.D. 2023-Sep-16 00:00:00.0000, -2.519404706072300E+08, 5.719021597830024E+08, 1.967496297893715E+07,
2460210.500000000, A.D. 2023-Sep-23 00:00:00.0000, -2.593998076286955E+08, 5.677682915884894E+08, 1.972661440392852E+07,
2460217.500000000, A.D. 2023-Sep-30 00:00:00.0000, -2.668074756687819E+08, 5.635212114712603E+08, 1.977433422515619E+07,
2460224.500000000, A.D. 2023-Oct-07 00:00:00.0000, -2.741618089670510E+08, 5.591613718652292E+08, 1.981809891000363E+07,
2460231.500000000, A.D. 2023-Oct-14 00:00:00.0000, -2.814611399352834E+08, 5.546892488374521E+08, 1.985788564300770E+07,
2460238.500000000, A.D. 2023-Oct-21 00:00:00.0000, -2.887037992899529E+08, 5.501053407969685E+08, 1.989367219680569E+07,
2460245.500000000, A.D. 2023-Oct-28 00:00:00.0000, -2.958881154448443E+08, 5.454101685206481E+08, 1.992543684204724E+07,
2460252.500000000, A.D. 2023-Nov-04 00:00:00.0000, -3.030124144140397E+08, 5.406042757261297E+08, 1.995315834819606E+07,
2460259.500000000, A.D. 2023-Nov-11 00:00:00.0000, -3.100750200476105E+08, 5.356882295918894E+08, 1.997681601016226E+07,
2460266.500000000, A.D. 2023-Nov-18 00:00:00.0000, -3.170742543804489E+08, 5.306626211597958E+08, 1.999638967561683E+07,
2460273.500000000, A.D. 2023-Nov-25 00:00:00.0000, -3.240084380213836E+08, 5.255280656422229E+08, 2.001185976836848E+07,
2460280.500000000, A.D. 2023-Dec-02 00:00:00.0000, -3.308758905544884E+08, 5.202852026218948E+08, 2.002320730447668E+07,
2460287.500000000, A.D. 2023-Dec-09 00:00:00.0000, -3.376749308750778E+08, 5.149346960848991E+08, 2.003041388927135E+07,
2460294.500000000, A.D. 2023-Dec-16 00:00:00.0000, -3.444038771734326E+08, 5.094772342989375E+08, 2.003346166999874E+07,
2460301.500000000, A.D. 2023-Dec-23 00:00:00.0000, -3.510610462186023E+08, 5.039135302240851E+08, 2.003233326829818E+07,
2460308.500000000, A.D. 2023-Dec-30 00:00:00.0000, -3.576447532834144E+08, 4.982443235056996E+08, 2.002701190108794E+07,
2460315.500000000, A.D. 2024-Jan-06 00:00:00.0000, -3.641533144834505E+08, 4.924703816894882E+08, 2.001748165931937E+07,
2460322.500000000, A.D. 2024-Jan-13 00:00:00.0000, -3.705850483566921E+08, 4.865924988515017E+08, 2.000372750569803E+07,
2460329.500000000, A.D. 2024-Jan-20 00:00:00.0000, -3.769382754604378E+08, 4.806114947267929E+08, 1.998573513098812E+07,
2460336.500000000, A.D. 2024-Jan-27 00:00:00.0000, -3.832113180147989E+08, 4.745282149889166E+08, 1.996349090799978E+07,
2460343.500000000, A.D. 2024-Feb-03 00:00:00.0000, -3.894025000211779E+08, 4.683435317315403E+08, 1.993698190475237E+07,
2460350.500000000, A.D. 2024-Feb-10 00:00:00.0000, -3.955101475783220E+08, 4.620583438604580E+08, 1.990619590735197E+07,
2460357.500000000, A.D. 2024-Feb-17 00:00:00.0000, -4.015325892574240E+08, 4.556735774032425E+08, 1.987112144032118E+07,
2460364.500000000, A.D. 2024-Feb-24 00:00:00.0000, -4.074681565006759E+08, 4.491901857507346E+08, 1.983174778214645E+07,
2460371.500000000, A.D. 2024-Mar-02 00:00:00.0000, -4.133151840143217E+08, 4.426091497973757E+08, 1.978806497059017E+07,
2460378.500000000, A.D. 2024-Mar-09 00:00:00.0000, -4.190720100177925E+08, 4.359314779171177E+08, 1.974006377982602E+07,
2460385.500000000, A.D. 2024-Mar-16 00:00:00.0000, -4.247369759539729E+08, 4.291582059717664E+08, 1.968773564921924E+07,
2460392.500000000, A.D. 2024-Mar-23 00:00:00.0000, -4.303084257646415E+08, 4.222903984604036E+08, 1.963107266385427E+07,
2460399.500000000, A.D. 2024-Mar-30 00:00:00.0000, -4.357847069729211E+08, 4.153291507830787E+08, 1.957006779015392E+07,
2460406.500000000, A.D. 2024-Apr-06 00:00:00.0000, -4.411641733167564E+08, 4.082755892512940E+08, 1.950471506787416E+07,
2460413.500000000, A.D. 2024-Apr-13 00:00:00.0000, -4.464451853816842E+08, 4.011308696807965E+08, 1.943500950113174E+07,
2460420.500000000, A.D. 2024-Apr-20 00:00:00.0000, -4.516261101854258E+08, 3.938961772422351E+08, 1.936094695456254E+07,
2460427.500000000, A.D. 2024-Apr-27 00:00:00.0000, -4.567053212320693E+08, 3.865727270080924E+08, 1.928252414788231E+07,
2460434.500000000, A.D. 2024-May-04 00:00:00.0000, -4.616811989481258E+08, 3.791617644923670E+08, 1.919973868334904E+07,
2460441.500000000, A.D. 2024-May-11 00:00:00.0000, -4.665521312621420E+08, 3.716645660808276E+08, 1.911258907603645E+07,
2460448.500000000, A.D. 2024-May-18 00:00:00.0000, -4.713165142459956E+08, 3.640824393730640E+08, 1.902107478129789E+07,
2460455.500000000, A.D. 2024-May-25 00:00:00.0000, -4.759727527933341E+08, 3.564167234288613E+08, 1.892519621674345E+07,
2460462.500000000, A.D. 2024-Jun-01 00:00:00.0000, -4.805192612755004E+08, 3.486687888611526E+08, 1.882495476875257E+07,
2460469.500000000, A.D. 2024-Jun-08 00:00:00.0000, -4.849544639287598E+08, 3.408400377522295E+08, 1.872035275928821E+07,
2460476.500000000, A.D. 2024-Jun-15 00:00:00.0000, -4.892767945734904E+08, 3.329319039378300E+08, 1.861139338116670E+07,
2460483.500000000, A.D. 2024-Jun-22 00:00:00.0000, -4.934846966710026E+08, 3.249458548337775E+08, 1.849808079026997E+07,
2460490.500000000, A.D. 2024-Jun-29 00:00:00.0000, -4.975766258403399E+08, 3.168833929843650E+08, 1.838042040071766E+07,
2460497.500000000, A.D. 2024-Jul-06 00:00:00.0000, -5.015510521898435E+08, 3.087460548615195E+08, 1.825841893865283E+07,
2460504.500000000, A.D. 2024-Jul-13 00:00:00.0000, -5.054064605132264E+08, 3.005354097378829E+08, 1.813208430681022E+07,
2460511.500000000, A.D. 2024-Jul-20 00:00:00.0000, -5.091413503356820E+08, 2.922530597813327E+08, 1.800142553592956E+07,
2460518.500000000, A.D. 2024-Jul-27 00:00:00.0000, -5.127542364660483E+08, 2.839006404108264E+08, 1.786645280473404E+07,
2460525.500000000, A.D. 2024-Aug-03 00:00:00.0000, -5.162436497816745E+08, 2.754798205377978E+08, 1.772717747270809E+07,
2460532.500000000, A.D. 2024-Aug-10 00:00:00.0000, -5.196081380799190E+08, 2.669923026875465E+08, 1.758361210995828E+07,
2460539.500000000, A.D. 2024-Aug-17 00:00:00.0000, -5.228462669490904E+08, 2.584398230213822E+08, 1.743577052139224E+07,
2460546.500000000, A.D. 2024-Aug-24 00:00:00.0000, -5.259566206314161E+08, 2.498241512366976E+08, 1.728366776059392E+07,
2460553.500000000, A.D. 2024-Aug-31 00:00:00.0000, -5.289378027627754E+08, 2.411470902832391E+08, 1.712732011749128E+07,
2460560.500000000, A.D. 2024-Sep-07 00:00:00.0000, -5.317884366237466E+08, 2.324104760217727E+08, 1.696674505633144E+07,
2460567.500000000, A.D. 2024-Sep-14 00:00:00.0000, -5.345071648164690E+08, 2.236161778206108E+08, 1.680196117725165E+07,
2460574.500000000, A.D. 2024-Sep-21 00:00:00.0000, -5.370926503961030E+08, 2.147661005019527E+08, 1.663298842098297E+07,
2460581.500000000, A.D. 2024-Sep-28 00:00:00.0000, -5.395435799445643E+08, 2.058621844101019E+08, 1.645984829739492E+07,
2460588.500000000, A.D. 2024-Oct-05 00:00:00.0000, -5.418586649159162E+08, 1.969064036029321E+08, 1.628256380128419E+07,
2460595.500000000, A.D. 2024-Oct-12 00:00:00.0000, -5.440366416126502E+08, 1.879007651453735E+08, 1.610115929192688E+07,
2460602.500000000, A.D. 2024-Oct-19 00:00:00.0000, -5.460762715435182E+08, 1.788473092327250E+08, 1.591566047475305E+07,
2460609.500000000, A.D. 2024-Oct-26 00:00:00.0000, -5.479763421952832E+08, 1.697481093417163E+08, 1.572609442254354E+07,
2460616.500000000, A.D. 2024-Nov-02 00:00:00.0000, -5.497356679605194E+08, 1.606052722604236E+08, 1.553248960039528E+07,
2460623.500000000, A.D. 2024-Nov-09 00:00:00.0000, -5.513530911240530E+08, 1.514209380171015E+08, 1.533487588728827E+07,
2460630.500000000, A.D. 2024-Nov-16 00:00:00.0000, -5.528274828812884E+08, 1.421972797074984E+08, 1.513328459191738E+07,
2460637.500000000, A.D. 2024-Nov-23 00:00:00.0000, -5.541577443406255E+08, 1.329365031700439E+08, 1.492774845443758E+07,
2460644.500000000, A.D. 2024-Nov-30 00:00:00.0000, -5.553428073007685E+08, 1.236408464655442E+08, 1.471830161157966E+07,
2460651.500000000, A.D. 2024-Dec-07 00:00:00.0000, -5.563816343824579E+08, 1.143125795812299E+08, 1.450497952110606E+07,
2460658.500000000, A.D. 2024-Dec-14 00:00:00.0000, -5.572732192022161E+08, 1.049540055821434E+08, 1.428781900887122E+07,
2460665.500000000, A.D. 2024-Dec-21 00:00:00.0000, -5.580165889061674E+08, 9.556746196805644E+07, 1.406685854982790E+07,
2460672.500000000, A.D. 2024-Dec-28 00:00:00.0000, -5.586108070912338E+08, 8.615531926813054E+07, 1.384213835968780E+07,
2460679.500000000, A.D. 2025-Jan-04 00:00:00.0000, -5.590549745149401E+08, 7.671997924917084E+07, 1.361370025341914E+07,
2460686.500000000, A.D. 2025-Jan-11 00:00:00.0000, -5.593482294131328E+08, 6.726387439608258E+07, 1.338158757348361E+07,
2460693.500000000, A.D. 2025-Jan-18 00:00:00.0000, -5.594897483415953E+08, 5.778946774436934E+07, 1.314584519700409E+07,
2460700.500000000, A.D. 2025-Jan-25 00:00:00.0000, -5.594787472973988E+08, 4.829925258928623E+07, 1.290651956094401E+07,
2460707.500000000, A.D. 2025-Feb-01 00:00:00.0000, -5.593144829294493E+08, 3.879575204087262E+07, 1.266365868567946E+07,
2460714.500000000, A.D. 2025-Feb-08 00:00:00.0000, -5.589962537785729E+08, 2.928151844382995E+07, 1.241731219342266E+07,
2460721.500000000, A.D. 2025-Feb-15 00:00:00.0000, -5.585234015170555E+08, 1.975913264151026E+07, 1.216753131738545E+07,
2460728.500000000, A.D. 2025-Feb-22 00:00:00.0000, -5.578953120871912E+08, 1.023120301945290E+07, 1.191436888746413E+07,
$$EOE